ARIANE 40 R/B           
1 20443U 90005H   26052.13559781  .00000216  00000+0  82255-4 0  9995
2 20443  98.3122 113.2873 0009058 251.6240 108.3964 14.39858506890420
DELTA 2 R/B(1)          
1 20453U 90008B   26052.00012549  .00061660  00000+0  78405-3 0  9992
2 20453  35.6040 284.1803 0088871 103.0443 258.0231 15.53535456923532
COSMOS 2058             
1 20465U 90010A   26052.02872987  .00003870  00000+0  22884-3 0  9999
2 20465  82.4665  63.8414 0010645  40.0076 320.1936 15.11158688939727
SL-14 R/B               
1 20466U 90010B   26052.09496455  .00000347  00000+0  39178-4 0  9990
2 20466  82.5006 282.9793 0019793 359.0835   1.0340 14.83553623926020
SL-14 R/B               
1 20511U 90018B   26051.96177350  .00000415  00000+0  49099-4 0  9993
2 20511  82.5179 238.7275 0017150 143.1709 217.0687 14.82124985920103
HST                     
1 20580U 90037B   26051.51930021  .00006899  00000+0  22882-3 0  9995
2 20580  28.4685 157.1051 0001109 279.2471  80.7999 15.29189194770682
SL-16 R/B               
1 20625U 90046B   26052.15533413  .00000164  00000+0  10916-3 0  9994
2 20625  71.0018 332.6378 0015557 322.4271  37.5763 14.15014224846058
COSMOS 2084             
1 20663U 90055A   26052.11768326  .00002531  00000+0  18827-3 0  9994
2 20663  62.7909  32.0925 0019631 186.2771 173.8086 15.05533626933829
SL-6 R/B(2)             
1 20666U 90055D   26052.14433580  .00001886  00000+0  15156-3 0  9995
2 20666  62.7837 310.1134 0022274 342.6835  17.3501 15.03508538935705
SL-8 R/B                
1 20775U 90078B   26052.04183703  .00012926  00000+0  37889-3 0  9993
2 20775  82.8997 266.2774 0365723  69.8267 294.1890 14.88469347806825
SL-8 R/B                
1 21088U 91006B   26051.93015515  .00000036  00000+0  20473-4 0  9996
2 21088  82.9453 182.5047 0023735  83.1874  38.6838 13.77492442761766
OKEAN-3                 
1 21397U 91039A   26051.85487381  .00003613  00000+0  25440-3 0  9992
2 21397  82.5211 353.1484 0015324  33.2756 326.9431 15.04672300862509
COSMOS 2151             
1 21422U 91042A   26052.14041161  .00001660  00000+0  13099-3 0  9997
2 21422  82.4945  99.6429 0014015 113.2012 247.0690 15.00037086860715
SL-14 R/B               
1 21423U 91042B   26051.94371856  .00000387  00000+0  46003-4 0  9999
2 21423  82.4897 235.8880 0015694 298.7058  61.2578 14.81811157850593
ERS-1                   
1 21574U 91050A   26052.01461333  .00000257  00000+0  97149-4 0  9997
2 21574  98.7892  69.8298 0030943 251.1284 108.6547 14.39434882813333
ARIANE 40 R/B           
1 21610U 91050F   26052.10522470  .00000242  00000+0  85060-4 0  9991
2 21610  98.2050 104.9612 0004267 117.4953 242.6672 14.42880394816601
INTERCOSMOS 25          
1 21819U 91086A   26052.14590293  .00000836  00000+0  15831-3 0  9990
2 21819  82.6078 320.0057 1487017 152.5696 216.2590 12.11949022494680
SL-8 R/B                
1 21876U 92008B   26052.15324284  .00000019  00000+0  35728-5 0  9996
2 21876  82.9243 280.0817 0034617 178.7705 296.3909 13.75970056707146
SL-8 R/B                
1 21938U 92020B   26051.83513201  .00000096  00000+0  84222-4 0  9999
2 21938  82.9342 166.2713 0028469 347.4087 164.9012 13.75547222698814
USA 81                  
1 21949U 92023A   26051.75319859  .00000184  00000+0  60684-4 0  9992
2 21949  85.0114 141.2085 0002737  93.4039 266.7466 14.32361608 92365
COSMOS 2219             
1 22219U 92076A   26052.10971883  .00000298  00000+0  18099-3 0  9990
2 22219  71.0589  52.7281 0019763 229.2803 130.6604 14.14080913716033
SL-16 R/B               
1 22220U 92076B   26051.90341870  .00000029  00000+0  38196-4 0  9999
2 22220  70.9978 223.7324 0011093 127.2464 342.8080 14.16854769719455
COSMOS 2221             
1 22236U 92080A   26052.11815655  .00001571  00000+0  13717-3 0  9996
2 22236  82.5036 294.9545 0012909 246.9602 113.0259 14.96131956778311
SL-16 R/B               
1 22285U 92093B   26052.13202918  .00000278  00000+0  16666-3 0  9997
2 22285  71.0218  39.0240 0005708 311.4671  48.5961 14.15446861710811
COSMOS 2228             
1 22286U 92094A   26052.07855773  .00001692  00000+0  14402-3 0  9992
2 22286  82.5145 253.2181 0018075   2.4924 357.6384 14.97103580773574
SL-16 R/B               
1 22566U 93016B   26051.95873810 -.00000085  00000+0 -19094-4 0  9996
2 22566  71.0043 250.3227 0010730 337.0068  23.0573 14.15299932699804
COSMOS 2242             
1 22626U 93024A   26052.12057004  .00001658  00000+0  14345-3 0  9999
2 22626  82.5171 282.5667 0016580   6.4724 353.6708 14.96476086777917
SL-16 R/B               
1 22803U 93059B   26052.10204733  .00000028  00000+0  37516-4 0  9991
2 22803  70.9895  46.1058 0019195 239.3540 120.5691 14.17227543677189
ARIANE 40 R/B           
1 22830U 93061H   26052.14869735  .00000170  00000+0  78246-4 0  9990
2 22830  98.4953 121.3599 0010034 338.5874  21.4889 14.32851364691736
COSMOS 2278             
1 23087U 94023A   26051.83615517  .00000284  00000+0  17309-3 0  9994
2 23087  71.0514 210.3562 0007165  46.9099 313.2622 14.14366517642420
SL-16 R/B               
1 23088U 94023B   26052.17302508  .00000275  00000+0  16678-3 0  9994
2 23088  70.9991 105.5765 0004968 300.9746  59.0888 14.15010646643754
SL-16 R/B               
1 23343U 94074B   26052.07998615  .00000408  00000+0  61410-4 0  9996
2 23343  97.7133  83.5687 0005138 276.9794 105.7470 14.79386612684790
SL-16 R/B               
1 23405U 94077B   26052.16106935  .00000050  00000+0  49856-4 0  9997
2 23405  70.9839  27.2598 0003860 228.7609 131.3182 14.15563761613891
ARIANE 40+ R/B          
1 23561U 95021B   26052.19951642  .00000250  00000+0  93626-4 0  9992
2 23561  98.4533 123.9026 0006848 182.1144 198.7597 14.39759337616876
SL-16 R/B               
1 23705U 95058B   26051.88455998 -.00000197  00000+0 -76390-4 0  9991
2 23705  71.0200 215.5350 0011401 155.0467 205.1210 14.15495297565470
SL-16 R/B               
1 24298U 96051B   26051.88558970  .00000087  00000+0  73627-4 0  9993
2 24298  70.7578 210.8054 0016615 172.2336 187.9044 14.12410862519270
ORBVIEW 2 (SEASTAR)     
1 24883U 97037A   26051.96812071  .00000237  00000+0  98504-4 0  9990
2 24883  98.8536 215.8393 0003194 105.8134 254.3403 14.35480695506070
SL-16 R/B               
1 25400U 98043G   26051.89237007  .00000060  00000+0  44198-4 0  9990
2 25400  98.8226   5.1398 0010862  65.5215 294.7096 14.26045528436596
SL-16 R/B               
1 25407U 98045B   26051.90377318  .00000097  00000+0  73066-4 0  9997
2 25407  71.0097 216.8725 0005864  36.8598 323.2928 14.16191073424728
ISS (ZARYA)             
1 25544U 98067A   26051.79705789  .00009624  00000+0  18780-3 0  9993
2 25544  51.6323 155.8543 0008571 116.6604 243.5263 15.48167199553715
CZ-4B R/B               
1 25732U 99025C   26052.15861834  .00000036  00000+0  38089-4 0  9995
2 25732  98.6662  96.8290 0037644  33.9781  34.9212 14.18261805385820
OKEAN-O                 
1 25860U 99039A   26052.15902285  .00000603  00000+0  85959-4 0  9996
2 25860  97.9481 112.2157 0001647  78.0742 282.0654 14.80306435431948
SL-16 R/B               
1 25861U 99039B   26052.15449039  .00000493  00000+0  69342-4 0  9995
2 25861  98.0005 111.2727 0013761 314.6478  45.3611 14.81706247434414
DELTA 2 R/B             
1 25876U 99041E   26051.30976164  .00001387  00000+0  26091-3 0  9990
2 25876  51.7662  10.6882 0502219 297.1100  57.9452 14.11770959360578
HELIOS 1B               
1 25977U 99064A   26052.16773734  .00001645  00000+0  18737-3 0  9995
2 25977  98.1713 313.9244 0002381  97.4692 262.6794 14.87624144682809
TERRA                   
1 25994U 99068A   26052.13435751  .00000366  00000+0  83615-4 0  9996
2 25994  97.9630 106.1985 0001519 198.4897 185.6594 14.60995248392669
SL-16 R/B               
1 26070U 00006B   26051.63220924  .00000039  00000+0  43952-4 0  9991
2 26070  71.0022 133.7044 0017850 213.8773 146.1211 14.15818419346149
TITAN 4B R/B            
1 26474U 00047B   26052.13108288  .00002852  00000+0  18355-3 0  9991
2 26474  67.9877  87.0683 0037574  55.4089 305.0595 15.09401742390415
ENVISAT                 
1 27386U 02009A   26051.85448799  .00000108  00000+0  48957-4 0  9990
2 27386  98.3700   5.8558 0001347  87.1886 331.5056 14.39030063256756
IDEFIX & ARIANE 42P R/B 
1 27422U 02021B   26051.85483530  .00000260  00000+0  11550-3 0  9994
2 27422  98.5855 350.6641 0010769 234.6576 125.3601 14.31013136241615
AQUA                    
1 27424U 02022A   26052.20313959  .00000916  00000+0  19287-3 0  9997
2 27424  98.4146  19.2718 0001051  47.5112  82.5840 14.61932386266327
CZ-4B R/B               
1 27432U 02024C   26052.16876558  .00000022  00000+0  33851-4 0  9994
2 27432  98.8879 105.6558 0051056  70.5237 357.8364 14.14544541226908
MIDORI II (ADEOS-II)    
1 27597U 02056A   26051.86247034  .00000252  00000+0  11689-3 0  9997
2 27597  98.7740  10.2272 0002076  66.2064 293.9335 14.29271485207893
H-2A R/B                
1 27601U 02056E   26051.95282568  .00000249  00000+0  10213-3 0  9992
2 27601  98.3173  12.9589 0069468 210.6907 181.7080 14.33748323211716
CZ-4B R/B               
1 28059U 03049C   26051.94793000  .00000390  00000+0  10114-3 0  9997
2 28059  98.6863  46.1983 0047034 283.2464  76.3488 14.55001409184169
CZ-2C R/B               
1 28222U 04012C   26052.16019572  .00049646  00000+0  55501-3 0  9996
2 28222  97.7266 115.9101 0014596  15.0376 345.1312 15.62474477201694
SL-16 R/B               
1 28353U 04021B   26051.98100639  .00000245  00000+0  15232-3 0  9994
2 28353  70.9989 267.5591 0003288  48.5065 311.6339 14.14597417120472
CZ-4B R/B               
1 28415U 04035C   26052.02344859  .00007563  00000+0  26907-3 0  9999
2 28415  97.3522  86.4677 0033113  30.8170 329.5005 15.28731307177363
CZ-2C R/B               
1 28480U 04046B   26052.14782322  .00000110  00000+0  56197-4 0  9993
2 28480  98.1991 328.1599 0138871 203.3652 156.1180 14.26985956106146
